H1 CPF 01  gfz 2021 02 05 01  5361 tandemx   
H2 1003001  6202 36605    2021 02 05 00 59 42 2021 02 10 00 00 42   120 1 1  0 0 0
H9
10 0 59252  29502.000000  0    3250828.459  -2907960.241  -5339577.715
10 0 59252  29622.000000  0    2562436.548  -2584754.533  -5855932.993
10 0 59252  29742.000000  0    1835748.612  -2204325.784  -6269976.593
10 0 59252  29862.000000  0    1084346.070  -1772754.106  -6574562.286
10 0 59252  29982.000000  0     322098.163  -1297228.712  -6764444.432
10 0 59252  30102.000000  0    -437090.479   -785927.928  -6836358.099
10 0 59252  30222.000000  0   -1179527.629   -247880.593  -6789068.268
10 0 59252  30342.000000  0   -1891974.647    307189.697  -6623388.583
10 0 59252  30462.000000  0   -2561876.993    869035.788  -6342168.057
10 0 59252  30582.000000  0   -3177580.490   1427070.965  -5950247.530
10 0 59252  30702.000000  0   -3728531.962   1970563.558  -5454386.070
10 0 59252  30822.000000  0   -4205462.629   2488839.991  -4863156.475
10 0 59252  30942.000000  0   -4600549.216   2971493.280  -4186807.772
10 0 59252  31062.000000  0   -4907548.589   3408591.491  -3437097.348
10 0 59252  31182.000000  0   -5121904.656   3790883.363  -2627095.780
10 0 59252  31302.000000  0   -5240823.812   4109996.308  -1770963.639
10 0 59252  31422.000000  0   -5263316.884   4358621.129   -883705.526
10 0 59252  31542.000000  0   -5190205.938   4530679.315     19095.755
10 0 59252  31662.000000  0   -5024094.347   4621468.481    921559.250
10 0 59252  31782.000000  0   -4769299.871   4627779.948   1807794.628
10 0 59252  31902.000000  0   -4431752.475   4547986.089   2662191.376
10 0 59252  32022.000000  0   -4018859.393   4382096.032   3469701.990
10 0 59252  32142.000000  0   -3539341.832   4131777.682   4216113.310
10 0 59252  32262.000000  0   -3003048.216   3800345.818   4888300.392
10 0 59252  32382.000000  0   -2420747.852   3392716.946   5474458.878
10 0 59252  32502.000000  0   -1803909.781   2915332.045   5964310.459
10 0 59252  32622.000000  0   -1164472.497   2376049.493   6349278.689
10 0 59252  32742.000000  0    -514610.010   1784010.299   6622631.919
10 0 59252  32862.000000  0     133499.419   1149480.337   6779594.610
10 0 59252  32982.000000  0     767901.521    483670.424   6817426.035
10 0 59252  33102.000000  0    1377085.613   -201461.548   6735464.545
10 0 59252  33222.000000  0    1950192.446   -893424.566   6535139.223
10 0 59252  33342.000000  0    2477207.461  -1579421.765   6219946.763
10 0 59252  33462.000000  0    2949137.040  -2246586.451   5795395.331
10 0 59252  33582.000000  0    3358164.893  -2882224.535   5268913.569
10 0 59252  33702.000000  0    3697784.870  -3474058.047   4649726.623
10 0 59252  33822.000000  0    3962908.759  -4010465.992   3948699.869
10 0 59252  33942.000000  0    4149946.347  -4480717.528   3178151.465
10 0 59252  34062.000000  0    4256855.429  -4875192.225   2351636.846
10 0 59252  34182.000000  0    4283160.974  -5185581.863   1483707.860
10 0 59252  34302.000000  0    4229941.826  -5405068.359    589651.233
10 0 59252  34422.000000  0    4099784.988  -5528472.740   -314787.813
10 0 59252  34542.000000  0    3896710.489  -5552373.042  -1213690.520
10 0 59252  34662.000000  0    3626066.004  -5475186.938  -2091254.577
10 0 59252  34782.000000  0    3294395.310  -5297215.991  -2932079.015
10 0 59252  34902.000000  0    2909284.807  -5020652.332  -3721440.119
10 0 59252  35022.000000  0    2479190.613  -4649547.185  -4445551.236
10 0 59252  35142.000000  0    2013251.841  -4189743.130  -5091801.349
10 0 59252  35262.000000  0    1521096.087  -3648771.909  -5648968.034
10 0 59252  35382.000000  0    1012641.461  -3035722.659  -6107402.533
10 0 59252  35502.000000  0     497897.993  -2361083.544  -6459186.277
10 0 59252  35622.000000  0     -13227.234  -1636558.512  -6698256.722
10 0 59252  35742.000000  0    -511116.658   -874863.233  -6820501.280
10 0 59252  35862.000000  0    -986617.918    -89504.148  -6823820.134
10 0 59252  35982.000000  0   -1431207.860    705455.907  -6708157.521
10 0 59252  36102.000000  0   -1837141.779   1495642.784  -6475502.222
10 0 59252  36222.000000  0   -2197585.054   2266624.408  -6129856.923
10 0 59252  36342.000000  0   -2506727.340   3004168.523  -5677177.968
10 0 59252  36462.000000  0   -2759876.816   3694502.981  -5125283.221
10 0 59252  36582.000000  0   -2953533.438   4324573.491  -4483729.116
10 0 59252  36702.000000  0   -3085439.494   4882294.518  -3763655.360
10 0 59252  36822.000000  0   -3154604.727   5356786.304  -2977599.376
10 0 59252  36942.000000  0   -3161306.469   5738593.910  -2139285.657
10 0 59252  37062.000000  0   -3107065.150   6019885.720  -1263389.773
10 0 59252  37182.000000  0   -2994592.539   6194622.587   -365279.576
10 0 59252  37302.000000  0   -2827716.571   6258692.971    539257.389
10 0 59252  37422.000000  0   -2611283.943   6210014.033   1434299.634
10 0 59252  37542.000000  0   -2351038.252   6048588.879   2304083.683
10 0 59252  37662.000000  0   -2053480.161   5776519.802   3133290.679
10 0 59252  37782.000000  0   -1725714.325   5397979.965   3907322.693
10 0 59252  37902.000000  0   -1375286.576   4919144.380   4612564.365
10 0 59252  38022.000000  0   -1010014.523   4348081.311   5236624.972
10 0 59252  38142.000000  0    -637815.235   3694607.099   5768554.824
10 0 59252  38262.000000  0    -266536.791   2970109.111   6199033.915
10 0 59252  38382.000000  0      96204.955   2187339.440   6520529.660
10 0 59252  38502.000000  0     443180.398   1360186.008   6727422.636
10 0 59252  38622.000000  0     767688.772    503422.704   6816099.327
10 0 59252  38742.000000  0    1063686.081   -367554.666   6785010.298
10 0 59252  38862.000000  0    1325896.826  -1237004.047   6634696.751
10 0 59252  38982.000000  0    1549908.062  -2089121.377   6367781.958
10 0 59252  39102.000000  0    1732244.054  -2908327.861   5988929.019
10 0 59252  39222.000000  0    1870420.462  -3679556.804   5504764.157
10 0 59252  39342.000000  0    1962976.857  -4388533.915   4923765.683
10 0 59252  39462.000000  0    2009487.763  -5022045.406   4256121.248
10 0 59252  39582.000000  0    2010552.794  -5568192.402   3513554.935
10 0 59252  39702.000000  0    1967763.488  -6016623.962   2709122.397
10 0 59252  39822.000000  0    1883647.733  -6358741.388   1856980.195
10 0 59252  39942.000000  0    1761595.405  -6587870.590    972133.957
10 0 59252  40062.000000  0    1605764.666  -6699398.996     70168.688
10 0 59252  40182.000000  0    1420971.416  -6690873.244   -833033.547
10 0 59252  40302.000000  0    1212564.073  -6562051.816  -1721585.158
10 0 59252  40422.000000  0     986287.232  -6314910.044  -2579880.617
10 0 59252  40542.000000  0     748139.382  -5953601.821  -3392876.383
10 0 59252  40662.000000  0     504229.194  -5484378.896  -4146357.478
10 0 59252  40782.000000  0     260631.073  -4915470.020  -4827185.535
10 0 59252  40902.000000  0      23244.891  -4256923.963  -5423522.788
10 0 59252  41022.000000  0    -202336.714  -3520421.261  -5925030.192
10 0 59252  41142.000000  0    -410950.848  -2719058.334  -6323036.373
10 0 59252  41262.000000  0    -597974.328  -1867109.628  -6610676.066
10 0 59252  41382.000000  0    -759419.441   -979772.443  -6782997.194
10 0 59252  41502.000000  0    -892013.890    -72898.614  -6837037.627
10 0 59252  41622.000000  0    -993263.635    837283.732  -6771869.604
10 0 59252  41742.000000  0   -1061498.286   1734452.769  -6588613.374
10 0 59252  41862.000000  0   -1095898.240   2602478.090  -6290419.836
10 0 59252  41982.000000  0   -1096503.081   3425704.412  -5882423.679
10 0 59252  42102.000000  0   -1064201.593   4189231.664  -5371664.493
10 0 59252  42222.000000  0   -1000702.728   4879184.974  -4766976.560
10 0 59252  42342.000000  0    -908488.726   5482971.921  -4078847.535
10 0 59252  42462.000000  0    -790750.491   5989520.459  -3319245.788
10 0 59252  42582.000000  0    -651306.115   6389491.952  -2501419.709
10 0 59252  42702.000000  0    -494504.144   6675465.784  -1639671.284
10 0 59252  42822.000000  0    -325114.030   6842089.326   -749106.318
10 0 59252  42942.000000  0    -148205.397   6886189.379    154633.112
10 0 59252  43062.000000  0      30980.735   6806841.617   1055649.715
10 0 59252  43182.000000  0     207164.896   6605394.693   1938080.093
10 0 59252  43302.000000  0     375162.321   6285446.419   2786383.545
10 0 59252  43422.000000  0     530013.284   5852775.269   3585622.571
10 0 59252  43542.000000  0     667108.336   5315230.523   4321731.050
10 0 59252  43662.000000  0     782305.067   4682583.082   4981768.979
10 0 59252  43782.000000  0     872031.210   3966332.130   5554150.145
10 0 59252  43902.000000  0     933375.604   3179488.169   6028840.243
10 0 59252  44022.000000  0     964162.608   2336328.944   6397528.901
10 0 59252  44142.000000  0     963008.307   1452134.356   6653769.462
10 0 59252  44262.000000  0     929358.692    542905.456   6793085.785
10 0 59252  44382.000000  0     863508.868   -374925.693   6813044.606
10 0 59252  44502.000000  0     766602.717  -1284791.835   6713296.643
10 0 59252  44622.000000  0     640612.924  -2170289.716   6495582.891
10 0 59252  44742.000000  0     488301.590  -3015476.026   6163706.736
10 0 59252  44862.000000  0     313162.075  -3805156.775   5723470.074
10 0 59252  44982.000000  0     119343.874  -4525161.289   5182575.566
10 0 59252  45102.000000  0     -88438.039  -5162600.103   4550499.345
10 0 59252  45222.000000  0    -305008.919  -5706104.841   3838332.294
10 0 59252  45342.000000  0    -524853.917  -6146041.567   3058588.065
10 0 59252  45462.000000  0    -742247.955  -6474691.691   2224983.526
10 0 59252  45582.000000  0    -951391.656  -6686395.962   1352195.025
10 0 59252  45702.000000  0   -1146552.128  -6777661.155    455595.751
10 0 59252  45822.000000  0   -1322204.830  -6747222.104   -449024.468
10 0 59252  45942.000000  0   -1473170.523  -6596057.247  -1345746.549
99
